[{"OBJECT_NAME":"FLOCK 4G-7","OBJECT_ID":"2025-009R","EPOCH":"2026-03-09T19:11:56.638176","MEAN_MOTION":15.27141471,"ECCENTRICITY":0.00013963,"INCLINATION":97.3984,"RA_OF_ASC_NODE":150.827,"ARG_OF_PERICENTER":336.9783,"MEAN_ANOMALY":23.1393,"EPHEMERIS_TYPE":0,"CLASSIFICATION_TYPE":"U","NORAD_CAT_ID":62624,"ELEMENT_SET_NO":999,"REV_AT_EPOCH":6372,"BSTAR":0.0004316781,"MEAN_MOTION_DOT":0.00011422,"MEAN_MOTION_DDOT":0},{"OBJECT_NAME":"STARLINK-34092","OBJECT_ID":"2025-095Q","EPOCH":"2026-03-08T08:59:45.354336","MEAN_MOTION":15.2761699,"ECCENTRICITY":0.0004049,"INCLINATION":43.0048,"RA_OF_ASC_NODE":183.9185,"ARG_OF_PERICENTER":289.7092,"MEAN_ANOMALY":70.3323,"EPHEMERIS_TYPE":0,"CLASSIFICATION_TYPE":"U","NORAD_CAT_ID":63904,"ELEMENT_SET_NO":999,"REV_AT_EPOCH":4757,"BSTAR":0.00074418038,"MEAN_MOTION_DOT":0.00020298,"MEAN_MOTION_DDOT":0}]
